{
  "type": "FeatureCollection",
  "features": [
    {
      "type": "Feature",
      "properties": {
        "norad_id": 31441,
        "name": "FENGYUN 1C DEB",
        "group": "fengyun-1c-debris",
        "lat": 20.89851354004061,
        "lon": -162.9565872408204,
        "alt_km": 578.6064163908086,
        "timestamp": "2025-12-04T23:34:06.005047+00:00",
        "meta_object_name": "FENGYUN 1C DEB",
        "meta_object_id": "1999-025BUD",
        "meta_epoch": "2025-12-03T01:51:36.412992",
        "meta_mean_motion": 14.73966305,
        "meta_eccentricity": 0.01063296,
        "meta_inclination": 99.3135,
        "meta_ra_of_asc_node": 198.4503,
        "meta_arg_of_pericenter": 4.9284,
        "meta_mean_anomaly": 355.2941,
        "meta_ephemeris_type": 0,
        "meta_classification_type": "U",
        "meta_norad_cat_id": 31441,
        "meta_element_set_no": 999,
        "meta_rev_at_epoch": 63948,
        "meta_bstar": 0.0068089716,
        "meta_mean_motion_dot": 0.00049217,
        "meta_mean_motion_ddot": 0,
        "tle_line1": "1 31441U 99025BUD 25337.07750478  .00049217  00000+0  68090-2 0  9993",
        "tle_line2": "2 31441  99.3135 198.4503 0106329   4.9284 355.2941 14.73966305639486"
      },
      "geometry": {
        "type": "Point",
        "coordinates": [
          -162.9565872408204,
          20.89851354004061
        ]
      }
    },
    {
      "type": "Feature",
      "properties": {
        "norad_id": 31442,
        "name": "FENGYUN 1C DEB",
        "group": "fengyun-1c-debris",
        "lat": 72.45429790701914,
        "lon": 36.722748751992576,
        "alt_km": 727.2352051140924,
        "timestamp": "2025-12-04T23:34:06.005057+00:00",
        "meta_object_name": "FENGYUN 1C DEB",
        "meta_object_id": "1999-025BUE",
        "meta_epoch": "2025-12-04T11:30:13.942656",
        "meta_mean_motion": 14.33904779,
        "meta_eccentricity": 0.0079549,
        "meta_inclination": 98.5313,
        "meta_ra_of_asc_node": 64.5704,
        "meta_arg_of_pericenter": 37.2094,
        "meta_mean_anomaly": 323.4567,
        "meta_ephemeris_type": 0,
        "meta_classification_type": "U",
        "meta_norad_cat_id": 31442,
        "meta_element_set_no": 999,
        "meta_rev_at_epoch": 97242,
        "meta_bstar": 0.00067549,
        "meta_mean_motion_dot": 1.907e-05,
        "meta_mean_motion_ddot": 0,
        "tle_line1": "1 31442U 99025BUE 25338.47932804  .00001907  00000+0  67549-3 0  9997",
        "tle_line2": "2 31442  98.5313  64.5704 0079549  37.2094 323.4567 14.33904779972421"
      },
      "geometry": {
        "type": "Point",
        "coordinates": [
          36.722748751992576,
          72.45429790701914
        ]
      }
    },
    {
      "type": "Feature",
      "properties": {
        "norad_id": 31443,
        "name": "FENGYUN 1C DEB",
        "group": "fengyun-1c-debris",
        "lat": 80.76843001264285,
        "lon": -8.988846100397193,
        "alt_km": 605.9214967282714,
        "timestamp": "2025-12-04T23:34:06.005069+00:00",
        "meta_object_name": "FENGYUN 1C DEB",
        "meta_object_id": "1999-025BUF",
        "meta_epoch": "2025-12-04T13:12:47.767104",
        "meta_mean_motion": 14.48503173,
        "meta_eccentricity": 0.0192556,
        "meta_inclination": 99.211,
        "meta_ra_of_asc_node": 77.2851,
        "meta_arg_of_pericenter": 122.5212,
        "meta_mean_anomaly": 239.4746,
        "meta_ephemeris_type": 0,
        "meta_classification_type": "U",
        "meta_norad_cat_id": 31443,
        "meta_element_set_no": 999,
        "meta_rev_at_epoch": 66823,
        "meta_bstar": 0.0035631,
        "meta_mean_motion_dot": 0.000169,
        "meta_mean_motion_ddot": 0,
        "tle_line1": "1 31443U 99025BUF 25338.55055286  .00016900  00000+0  35631-2 0  9992",
        "tle_line2": "2 31443  99.2110  77.2851 0192556 122.5212 239.4746 14.48503173668238"
      },
      "geometry": {
        "type": "Point",
        "coordinates": [
          -8.988846100397193,
          80.76843001264285
        ]
      }
    },
    {
      "type": "Feature",
      "properties": {
        "norad_id": 31444,
        "name": "FENGYUN 1C DEB",
        "group": "fengyun-1c-debris",
        "lat": -10.752647521899542,
        "lon": 98.58858816355564,
        "alt_km": 669.8256248865446,
        "timestamp": "2025-12-04T23:34:06.005082+00:00",
        "meta_object_name": "FENGYUN 1C DEB",
        "meta_object_id": "1999-025BUG",
        "meta_epoch": "2025-12-04T01:28:04.457280",
        "meta_mean_motion": 14.69659904,
        "meta_eccentricity": 0.00623839,
        "meta_inclination": 98.9265,
        "meta_ra_of_asc_node": 279.2929,
        "meta_arg_of_pericenter": 98.6483,
        "meta_mean_anomaly": 262.1794,
        "meta_ephemeris_type": 0,
        "meta_classification_type": "U",
        "meta_norad_cat_id": 31444,
        "meta_element_set_no": 999,
        "meta_rev_at_epoch": 97361,
        "meta_bstar": 0.0034316845,
        "meta_mean_motion_dot": 0.00021039,
        "meta_mean_motion_ddot": 0,
        "tle_line1": "1 31444U 99025BUG 25338.06116270  .00021039  00000+0  34317-2 0  9999",
        "tle_line2": "2 31444  98.9265 279.2929 0062383  98.6483 262.1794 14.69659904973617"
      },
      "geometry": {
        "type": "Point",
        "coordinates": [
          98.58858816355564,
          -10.752647521899542
        ]
      }
    },
    {
      "type": "Feature",
      "properties": {
        "norad_id": 31447,
        "name": "FENGYUN 1C DEB",
        "group": "fengyun-1c-debris",
        "lat": 66.06395259162244,
        "lon": -0.850238521140897,
        "alt_km": 696.9483943983541,
        "timestamp": "2025-12-04T23:34:06.005094+00:00",
        "meta_object_name": "FENGYUN 1C DEB",
        "meta_object_id": "1999-025BUK",
        "meta_epoch": "2025-11-29T08:21:43.391232",
        "meta_mean_motion": 14.24014054,
        "meta_eccentricity": 0.02308258,
        "meta_inclination": 98.9936,
        "meta_ra_of_asc_node": 14.2854,
        "meta_arg_of_pericenter": 33.7171,
        "meta_mean_anomaly": 327.8449,
        "meta_ephemeris_type": 0,
        "meta_classification_type": "U",
        "meta_norad_cat_id": 31447,
        "meta_element_set_no": 999,
        "meta_rev_at_epoch": 64661,
        "meta_bstar": 0.00017749079,
        "meta_mean_motion_dot": 4.86e-06,
        "meta_mean_motion_ddot": 0,
        "tle_line1": "1 31447U 99025BUK 25333.34841888  .00000486  00000+0  17749-3 0  9992",
        "tle_line2": "2 31447  98.9936  14.2854 0230825  33.7171 327.8449 14.24014054646616"
      },
      "geometry": {
        "type": "Point",
        "coordinates": [
          -0.850238521140897,
          66.06395259162244
        ]
      }
    },
    {
      "type": "Feature",
      "properties": {
        "norad_id": 31448,
        "name": "FENGYUN 1C DEB",
        "group": "fengyun-1c-debris",
        "lat": -23.230395025887255,
        "lon": -5.840722541368314,
        "alt_km": 818.4561748171618,
        "timestamp": "2025-12-04T23:34:06.005104+00:00",
        "meta_object_name": "FENGYUN 1C DEB",
        "meta_object_id": "1999-025BUL",
        "meta_epoch": "2025-12-02T19:32:21.678720",
        "meta_mean_motion": 14.27758281,
        "meta_eccentricity": 0.00583055,
        "meta_inclination": 98.4997,
        "meta_ra_of_asc_node": 348.3701,
        "meta_arg_of_pericenter": 233.3288,
        "meta_mean_anomaly": 126.2527,
        "meta_ephemeris_type": 0,
        "meta_classification_type": "U",
        "meta_norad_cat_id": 31448,
        "meta_element_set_no": 999,
        "meta_rev_at_epoch": 64162,
        "meta_bstar": 0.00092327897,
        "meta_mean_motion_dot": 2.279e-05,
        "meta_mean_motion_ddot": 0,
        "tle_line1": "1 31448U 99025BUL 25336.81413980  .00002279  00000+0  92328-3 0  9994",
        "tle_line2": "2 31448  98.4997 348.3701 0058305 233.3288 126.2527 14.27758281641623"
      },
      "geometry": {
        "type": "Point",
        "coordinates": [
          -5.840722541368314,
          -23.230395025887255
        ]
      }
    },
    {
      "type": "Feature",
      "properties": {
        "norad_id": 31449,
        "name": "FENGYUN 1C DEB",
        "group": "fengyun-1c-debris",
        "lat": 25.916893270963037,
        "lon": -138.22432311629,
        "alt_km": 854.7804015567808,
        "timestamp": "2025-12-04T23:34:06.005114+00:00",
        "meta_object_name": "FENGYUN 1C DEB",
        "meta_object_id": "1999-025BUM",
        "meta_epoch": "2025-12-03T21:43:02.699904",
        "meta_mean_motion": 14.33690115,
        "meta_eccentricity": 0.01440935,
        "meta_inclination": 98.556,
        "meta_ra_of_asc_node": 36.515,
        "meta_arg_of_pericenter": 295.0988,
        "meta_mean_anomaly": 63.5302,
        "meta_ephemeris_type": 0,
        "meta_classification_type": "U",
        "meta_norad_cat_id": 31449,
        "meta_element_set_no": 999,
        "meta_rev_at_epoch": 97510,
        "meta_bstar": 0.00039219438,
        "meta_mean_motion_dot": 1.174e-05,
        "meta_mean_motion_ddot": 0,
        "tle_line1": "1 31449U 99025BUM 25337.90489236  .00001174  00000+0  39219-3 0  9996",
        "tle_line2": "2 31449  98.5560  36.5150 0144093 295.0988  63.5302 14.33690115975102"
      },
      "geometry": {
        "type": "Point",
        "coordinates": [
          -138.22432311629,
          25.916893270963037
        ]
      }
    }
  ]
}